{"type":"FeatureCollection","features":[{"type":"Feature","id":29743,"geometry":{"type":"Polygon","coordinates":[[[-117.50687564376437,38.255431373431804],[-117.50671105817818,38.259212132822],[-117.5065464475921,38.262992917212181],[-117.51110522739725,38.263101509891271],[-117.51566406320232,38.263209963570326],[-117.52031584400483,38.263159445226762],[-117.52496759680716,38.263108786883116],[-117.52514614939328,38.259308254490207],[-117.52532464497952,38.255507721097295],[-117.52070795218035,38.25553304343569],[-117.516091229381,38.255558338774094],[-117.51148342157273,38.255494857102967],[-117.50687564376437,38.255431373431804]]]},"properties":{"OBJECTID":29743,"ID":"1101522324721221884","CSE_NAME":"BIGE - 180","STAGE_ID":null,"BLM_PROD":"LODE CLAIM","CSE_TYPE_NR":"384101","CSE_NR":"NV105757234","LEG_CSE_NR":null,"SF_ID":"a023d00000B9qqaAAB","CSE_DISP":"Closed","SRC":"LLD","QLTY":"1: MIDPOINT\nTYPICAL QUARTER SECTION WITH 4 STANDARD LEGALS ATTRIBUTED\nDOES NOT MATCH PM ANGLES\naliquot\n36 sections retrieved\n594 intersected features retrieved\n16 matching sections found\nsection 29 issimple: False, SIMPLE\nTYPICAL QUARTER SECTION WITH 4 ST","CSE_META":"NV 21 0050N 0400E 029 A SW|NV 21 0050N 0400E 030 A SE","RCRD_ACRS":20.66,"Created":1690872152000,"Modified":1766430240000,"Shape__Area":0.00014044700007348953,"Shape__Length":0.052052442341397116}},{"type":"Feature","id":29744,"geometry":{"type":"Polygon","coordinates":[[[-117.50687564376437,38.255431373431804],[-117.50671105817818,38.259212132822],[-117.5065464475921,38.262992917212181],[-117.51110522739725,38.263101509891271],[-117.51566406320232,38.263209963570326],[-117.52031584400483,38.263159445226762],[-117.52496759680716,38.263108786883116],[-117.52514614939328,38.259308254490207],[-117.52532464497952,38.255507721097295],[-117.52070795218035,38.25553304343569],[-117.516091229381,38.255558338774094],[-117.51148342157273,38.255494857102967],[-117.50687564376437,38.255431373431804]]]},"properties":{"OBJECTID":29744,"ID":"1101522324721221885","CSE_NAME":"BIGE - 181","STAGE_ID":null,"BLM_PROD":"LODE CLAIM","CSE_TYPE_NR":"384101","CSE_NR":"NV105757235","LEG_CSE_NR":null,"SF_ID":"a023d00000B9qqbAAB","CSE_DISP":"Closed","SRC":"LLD","QLTY":"1: MIDPOINT\nTYPICAL QUARTER SECTION WITH 4 STANDARD LEGALS ATTRIBUTED\nDOES NOT MATCH PM ANGLES\naliquot\n36 sections retrieved\n594 intersected features retrieved\n16 matching sections found\nsection 29 issimple: False, SIMPLE\nTYPICAL QUARTER SECTION WITH 4 ST","CSE_META":"NV 21 0050N 0400E 029 A SW|NV 21 0050N 0400E 030 A SE","RCRD_ACRS":20.66,"Created":1690872152000,"Modified":1766430240000,"Shape__Area":0.00014044700007348953,"Shape__Length":0.052052442341397116}},{"type":"Feature","id":29745,"geometry":{"type":"Polygon","coordinates":[[[-117.50687564376437,38.255431373431804],[-117.50671105817818,38.259212132822],[-117.5065464475921,38.262992917212181],[-117.51110522739725,38.263101509891271],[-117.51566406320232,38.263209963570326],[-117.51587764679159,38.259384151172227],[-117.516091229381,38.255558338774094],[-117.51148342157273,38.255494857102967],[-117.50687564376437,38.255431373431804]]]},"properties":{"OBJECTID":29745,"ID":"1101522324721221886","CSE_NAME":"BIGE - 182","STAGE_ID":null,"BLM_PROD":"LODE CLAIM","CSE_TYPE_NR":"384101","CSE_NR":"NV105757236","LEG_CSE_NR":null,"SF_ID":"a023d00000B9qqcAAB","CSE_DISP":"Closed","SRC":"LLD","QLTY":"1: MIDPOINT\nTYPICAL QUARTER SECTION WITH 4 STANDARD LEGALS ATTRIBUTED\nDOES NOT MATCH PM ANGLES\naliquot\n36 sections retrieved\n594 intersected features retrieved\n16 matching sections found\nsection 29 issimple: False","CSE_META":"NV 21 0050N 0400E 029 A SW","RCRD_ACRS":20.66,"Created":1690872152000,"Modified":1766430240000,"Shape__Area":6.9791821493150519e-05,"Shape__Length":0.033568899608281487}}],"exceededTransferLimit":true,"properties":{"exceededTransferLimit":true}}