{"type":"FeatureCollection","features":[{"type":"Feature","id":20,"geometry":{"type":"Polygon","coordinates":[[[-117.00399267644916,39.839964624356405],[-117.00399263644923,39.839964933356477],[-117.00399572092752,39.843586622706496],[-117.00399880640596,39.847208281056474],[-117.00399884540604,39.847208590056496],[-117.00399924740607,39.847208620056463],[-117.0087028642419,39.847209594687719],[-117.01340647907756,39.847210346318967],[-117.01340688107767,39.847210316318964],[-117.0134069210776,39.847210007318886],[-117.01340411459913,39.843588179969032],[-117.01340127912083,39.839966326619056],[-117.01340124012081,39.839966018619052],[-117.01340083812069,39.839965987619053],[-117.00869694428503,39.839965289987717],[-117.00399307844926,39.839964593356363],[-117.00399267644916,39.839964624356405]]]},"properties":{"OBJECTID":20,"ID":"804036571484549120","CSE_NAME":"MAGA #1","STAGE_ID":"804009268813615104","BLM_PROD":"Lode Claim","CSE_TYPE_NR":"384101","CSE_NR":"NV105221812","LEG_CSE_NR":"","SF_ID":"a02t0000006LhxkAAC","CSE_DISP":"Active","SRC":"PLSS","QLTY":"100","CSE_META":"NV 21 0230N 0440E 022 A SWSE|NV 21 0230N 0440E 022 A SESE|NV 21 0230N 0440E 022 A NESE|NV 21 0230N 0440E 022 A NWSE","RCRD_ACRS":20.66,"Created":1611705600000,"Modified":1728291511000,"Shape__Length":0.03330487777807007,"Shape__Area":6.8156661262635512e-05}},{"type":"Feature","id":23,"geometry":{"type":"Polygon","coordinates":[[[-117.00399267644916,39.839964624356405],[-117.00399263644923,39.839964933356477],[-117.00399572092752,39.843586622706496],[-117.00399880640596,39.847208281056474],[-117.00399884540604,39.847208590056496],[-117.00399924740607,39.847208620056463],[-117.0087028642419,39.847209594687719],[-117.01340647907756,39.847210346318967],[-117.01340688107767,39.847210316318964],[-117.0134069210776,39.847210007318886],[-117.01340411459913,39.843588179969032],[-117.01340127912083,39.839966326619056],[-117.01340124012081,39.839966018619052],[-117.01340083812069,39.839965987619053],[-117.00869694428503,39.839965289987717],[-117.00399307844926,39.839964593356363],[-117.00399267644916,39.839964624356405]]]},"properties":{"OBJECTID":23,"ID":"804082708975247360","CSE_NAME":"MAGA #2","STAGE_ID":"804034611549200384","BLM_PROD":"Lode Claim","CSE_TYPE_NR":"384101","CSE_NR":"NV105221813","LEG_CSE_NR":"","SF_ID":"a02t0000006LhxlAAC","CSE_DISP":"Active","SRC":"PLSS","QLTY":"100","CSE_META":"NV 21 0230N 0440E 022 A SWSE|NV 21 0230N 0440E 022 A SESE|NV 21 0230N 0440E 022 A NESE|NV 21 0230N 0440E 022 A NWSE|NV 21 0230N 0440E 022 A SWSE|NV 21 0230N 0440E 022 A SESE|NV 21 0230N 0440E 022 A NESE|NV 21 0230N 0440E 022 A NWSE","RCRD_ACRS":20.66,"Created":1611705600000,"Modified":1728291511000,"Shape__Length":0.03330487777807007,"Shape__Area":6.8156661262635512e-05}},{"type":"Feature","id":24,"geometry":{"type":"Polygon","coordinates":[[[-117.00400522245212,39.839970135355948],[-117.00400830693049,39.843592163706056],[-117.004011392409,39.847214162056048],[-117.00401447688763,39.850836190406028],[-117.00401756236641,39.85445821675598],[-117.00872137120223,39.854458857387058],[-117.01342515103798,39.854459497018141],[-117.01342234455923,39.850837693668346],[-117.0134195100806,39.847215887318477],[-117.0134167026021,39.843593720968528],[-117.01341386612377,39.839971528618584],[-117.00870953028799,39.839970830987284],[-117.00400522245212,39.839970135355948]]]},"properties":{"OBJECTID":24,"ID":"804084015572336640","CSE_NAME":"MAGA #3","STAGE_ID":"804083356114468864","BLM_PROD":"Lode Claim","CSE_TYPE_NR":"384101","CSE_NR":"NV105221814","LEG_CSE_NR":"","SF_ID":"a02t0000006LhxmAAC","CSE_DISP":"Active","SRC":"LLD","QLTY":"0: \n36 sections retrieved\n576 intersected features retrieved, \n36 sections retrieved\n576 intersected features retrieved, \n36 sections retrieved\n576 intersected features retrieved, \n36 sections retrieved\n576 intersected features retrieved, \n36 sections ret","CSE_META":"NV 21 0230N 0440E 022 A SWSE|NV 21 0230N 0440E 022 A SESE|NV 21 0230N 0440E 022 A NESE|NV 21 0230N 0440E 022 A NWSE|NV 21 0230N 0440E 022 A SWNE|NV 21 0230N 0440E 022 A NWNE|NV 21 0230N 0440E 022 A SENE|NV 21 0230N 0440E 022 A NENE","RCRD_ACRS":20.66,"Created":1611705600000,"Modified":1728291511000,"Shape__Length":0.047792285837605218,"Shape__Area":0.00013630509073150803}}],"exceededTransferLimit":true,"properties":{"exceededTransferLimit":true}}